{"type":"FeatureCollection","features":[{"type":"Feature","id":1,"geometry":{"type":"MultiPolygon","coordinates":[[[[29.709225557582581,-1.5645816915087292],[29.709169717309148,-1.5644690048390235],[29.709226946637816,-1.5645885714395236],[29.709225557582581,-1.5645816915087292]]],[[[29.708782349875655,-1.5638616569911219],[29.708756210626969,-1.5638187024514463],[29.708776332067366,-1.5638586030468191],[29.708782349875655,-1.5638616569911219]]],[[[29.743424462495774,-1.5299859194440635],[29.743604053647097,-1.5299856881940894],[29.743676037479084,-1.5298394863414491],[29.743484876193573,-1.529774747765088],[29.743424347610464,-1.5298955513447381],[29.743424462495774,-1.5299859194440635]]],[[[29.743424462495774,-1.5299859194440635],[29.743244871317277,-1.5299861506789458],[29.743244756439466,-1.5298957825659567],[29.743001640460687,-1.5300057692052886],[29.742522415965578,-1.5298562283150352],[29.74243636616594,-1.5297160865255059],[29.742346570516617,-1.5297162020828434],[29.741982906302137,-1.5296227827401341],[29.741817986792288,-1.5293686025404121],[29.742211321816349,-1.5292793277250083],[29.742467584887514,-1.5293368021384919],[29.742954190536576,-1.5291528467787163],[29.743137234193789,-1.5288853235983668],[29.743243378435576,-1.528811365203453],[29.743243148863375,-1.5286306289751792],[29.743206059688241,-1.528306114544207],[29.743152664789033,-1.5280885357566365],[29.743062869261482,-1.5280886512211851],[29.743062754533817,-1.5279982830927483],[29.742972729575751,-1.5278176622759063],[29.742882934045845,-1.5278177777124256],[29.74288281934604,-1.5277274095700717],[29.742586734833434,-1.5274894157137084],[29.743011555106392,-1.5269541172377856],[29.743061378331685,-1.5269138655448833],[29.74313436646629,-1.5266261205202036],[29.743240510736094,-1.5265521623256206],[29.743240281503553,-1.5263714260931025],[29.743385297011201,-1.5260578526590904],[29.743296093232679,-1.5256598480449435],[29.7431494548774,-1.5255582283196025],[29.743059659454602,-1.525558343592871],[29.743059544917134,-1.5254679754620579],[29.742879839535441,-1.5253778378390868],[29.742700248657243,-1.5253780683319667],[29.742700134148318,-1.5252877001736607],[29.742610338702768,-1.5252878154076284],[29.74261022420437,-1.5251974472424077],[29.742481191478483,-1.5250974711568841],[29.742598643608574,-1.5248993090232692],[29.742968947945403,-1.5248355137588532],[29.743208129801694,-1.5248048494486393],[29.743328015009098,-1.5247446847658712],[29.743507605739875,-1.5247444543159812],[29.743567784480966,-1.524624357224952],[29.743686967445317,-1.5245634876834659],[29.743747146180382,-1.5244433906144905],[29.743866329120873,-1.5243825210902371],[29.743916620782336,-1.5240719812001093],[29.743955208732167,-1.5236594613608556],[29.743918235310904,-1.5234253150355299],[29.743743829283748,-1.5231565079416602],[29.743383555220372,-1.5230213731244306],[29.743325726549187,-1.5229373225281706],[29.742996321283542,-1.5226821172021059],[29.742786154479596,-1.5223054358897339],[29.742387268964336,-1.5220791547861796],[29.742358788525276,-1.5218511413430145],[29.7429111963366,-1.5217812788036535],[29.742965630801116,-1.5222148377131379],[29.743235016655046,-1.5222144926516221],[29.743353808510406,-1.5221219651414266],[29.743414035753073,-1.5217624220579034],[29.743363301044859,-1.5217231162938876],[29.743284734623831,-1.5214497191654299],[29.743718260251669,-1.5207243421619194],[29.743771503151169,-1.5204064408254108],[29.743741033200852,-1.5201657334326066],[29.743681251324016,-1.5200450833837771],[29.743262174684705,-1.5198345255517631],[29.743021987087854,-1.5196244436227089],[29.742602910433821,-1.5194138844922127],[29.742527694965617,-1.5195019551065743],[29.741611560699255,-1.5196703392244024],[29.741304197641529,-1.5194045356057753],[29.741427785837036,-1.5189432801297855],[29.742145512588589,-1.5185256123703021],[29.742515563638062,-1.517688206064606],[29.742959811059485,-1.5176060624257695],[29.742959697123514,-1.5175156942806847],[29.743139287312285,-1.5175154649538822],[29.743139173375663,-1.5174250968223761],[29.743228968456144,-1.5174249821601937],[29.743228854522602,-1.5173346140354345],[29.743318649592567,-1.5173344993763418],[29.743497784001271,-1.516972797629037],[29.743497670090544,-1.5168824295243526],[29.743626159454305,-1.5165522985096191],[29.74340685019537,-1.5160692311493251],[29.743317055184225,-1.5160693457165106],[29.743316941348866,-1.5159789775973191],[29.74322714633465,-1.5159790921539344],[29.743227032509797,-1.5158887240278269],[29.743047442468399,-1.5158889531161797],[29.74304732865777,-1.5157985849763249],[29.74286762480023,-1.5157084458824623],[29.742688034719347,-1.5157086749135877],[29.742687920937161,-1.5156183067462414],[29.742598125890247,-1.5156184212493673],[29.742598012118563,-1.5155280530751063],[29.742148809314838,-1.5153478890834571],[29.742104057450454,-1.5154636872088787],[29.742059014238318,-1.5153480035436719],[29.741789628968014,-1.5153483469018956],[29.741699992537669,-1.5154745494451451],[29.741610038753869,-1.5153485757886944],[29.74134065338173,-1.5153489190908667],[29.741340425989861,-1.5151681825505547],[29.741280758446074,-1.5151379011134669],[29.741101286371453,-1.5147794800554322],[29.741070358633042,-1.5146263160322995],[29.740980563504753,-1.5146264303930632],[29.740980449874577,-1.5145360620949697],[29.740890654743215,-1.5145361764451724],[29.740890541123541,-1.5144458081401686],[29.740800745989091,-1.5144459224798106],[29.740800632379912,-1.5143555541678968],[29.740620928503116,-1.5142654144966778],[29.740521584193292,-1.5143952802804406],[29.739951129538067,-1.5143043474932263],[29.739902112940747,-1.5139048553886123],[29.740081249179649,-1.5135431533935972],[29.740081135668014,-1.5134527850262443],[29.740170930815943,-1.5134526707915428],[29.740170817307384,-1.5133623024309293],[29.740260612444814,-1.51336218819932],[29.740260498939328,-1.5132718198454469],[29.740350294066271,-1.51327170561693],[29.740582842723011,-1.5131441312007017],[29.740798929056716,-1.5130000294790977],[29.740798815556133,-1.5129096611658384],[29.740888610627525,-1.5129095469422347],[29.740978880883365,-1.5127294019035085],[29.741157655295471,-1.5126380993906707],[29.741157541807212,-1.5125477311043798],[29.741247336836626,-1.5125476168931598],[29.741320273913939,-1.5119540955013742],[29.741066498888923,-1.5115537940820316],[29.740746266273831,-1.5114244617871428],[29.740527388651433,-1.5112833737926588],[29.740258003535534,-1.511283716038976],[29.740257890186125,-1.5111933476831703],[29.740038253240851,-1.5110231826251643],[29.739948669914398,-1.5106156448960968],[29.740256643790495,-1.510199295763768],[29.740256530522515,-1.5101089274069555],[29.740477058592699,-1.5096082563714002],[29.740525235962085,-1.5095663754070048],[29.740704825864785,-1.5095661474835178],[29.74070493911054,-1.5096565158067097],[29.74079473405541,-1.5096564018325571],[29.740794847311655,-1.5097467701488394],[29.740884642253437,-1.5097466561641379],[29.740884868793685,-1.5099273927827996],[29.740974663736079,-1.5099272787807232],[29.740974890310877,-1.5101080153853972],[29.74123812822582,-1.5104503464452137],[29.741858582156212,-1.5106949057145003],[29.742322607357327,-1.5107388820994119],[29.742412402224396,-1.5107387679762954],[29.742412515628715,-1.510829136168673],[29.742592105349889,-1.5108289078976038],[29.742592218768404,-1.5109192760762375],[29.742721249468776,-1.5110192545998424],[29.742591158133735,-1.5115414533854474],[29.741925910359935,-1.5120082946437601],[29.742026741158835,-1.512416456100155],[29.742869681133829,-1.5127247567276529],[29.74368793532301,-1.5134686566048881],[29.744202834303437,-1.5136799782319372],[29.744301955066359,-1.5138088841459219],[29.744412080478092,-1.5138851907620987],[29.74455194060522,-1.5144551525272005],[29.744482568476275,-1.5146219675556682],[29.744572363339678,-1.5146218530492408],[29.744573387653109,-1.515435165269281],[29.744663182543118,-1.5154350506976026],[29.744663296393419,-1.5155254187147955],[29.74469415252474,-1.5155866028661789],[29.745232648594168,-1.5158558072466861],[29.745382110886542,-1.5158859738013191],[29.74550864982665,-1.515939270402207],[29.745951315564021,-1.5160125259444084],[29.746378254591015,-1.5157319527482342],[29.746459306771719,-1.515613494240077],[29.746459078915787,-1.5154327584792762],[29.74654864582687,-1.5152519080816642],[29.746548531918993,-1.5151615402078087],[29.746517948973505,-1.514830465395874],[29.746458167764111,-1.5147098154327037],[29.746458053900753,-1.5146194475515034],[29.746368259180127,-1.5146195621363636],[29.746367803809562,-1.5142580905833614],[29.746636504987912,-1.5137155396907422],[29.746636391191952,-1.5136251718222959],[29.746726185851369,-1.5136250573014733],[29.746680206741541,-1.5130796980075505],[29.746361080448512,-1.5119120058078266],[29.747025271318837,-1.5111479514349333],[29.747081385199042,-1.5104617249293935],[29.746991590696506,-1.5104618392257045],[29.746991363571492,-1.5102811035374009],[29.746901569069561,-1.5102812178163054],[29.746901341979161,-1.5101004821139845],[29.7466772611312,-1.5097601449013134],[29.746594193307757,-1.5092341035622103],[29.746540915584905,-1.5091068924678939],[29.746510561251306,-1.5089565532454758],[29.746391000350304,-1.5087152536038104],[29.746360646076482,-1.5085649134461441],[29.745986401992667,-1.508316711505068],[29.74539265808351,-1.5080939836708429],[29.745156481083818,-1.5084391654622704],[29.745103409402425,-1.5084761428385614],[29.744896401708854,-1.508778707129925],[29.744601956054872,-1.5088455334250452],[29.743666582175077,-1.5083875993168059],[29.743621829921864,-1.5085033970704871],[29.743576787499268,-1.5083877133144281],[29.743002781855555,-1.5083295245313417],[29.742964283138477,-1.5078550295885671],[29.743294345100722,-1.5069764101144572],[29.744243294065388,-1.5064241944844727],[29.744692770281251,-1.5058978073085416],[29.744740947446346,-1.505855926547667],[29.744710028138957,-1.5052537468752776],[29.744650248161349,-1.5051330961867813],[29.744650135092662,-1.5050427281599355],[29.744650022030775,-1.5049523601330062],[29.744346151031593,-1.5046697164903737],[29.744918727077359,-1.5044098107340396],[29.74491861405199,-1.5043194427270314],[29.745008408459764,-1.504319328981236],[29.745128067294154,-1.5040784312672619],[29.745187658186431,-1.5040479975185177],[29.745187545177199,-1.5039576295316839],[29.745145128712718,-1.50327655784676],[29.745048339413071,-1.5030123047627513],[29.744951424356373,-1.5020679085685302],[29.74448788710983,-1.5014117368066131],[29.744375445636571,-1.5007957711859869],[29.744314811910261,-1.5006755406133268],[29.743956263540337,-1.5004948387070656],[29.743716081520212,-1.5002847530364318],[29.743476826147162,-1.5002546968328974],[29.74335694108203,-1.500314859058232],[29.743117761321763,-1.5003455184592769],[29.743117873974523,-1.5004358866066314],[29.743028079582345,-1.5004359999807806],[29.743028192238228,-1.5005263681348833],[29.74293839783558,-1.5005264815121635],[29.74283255633399,-1.5007377100988919],[29.742429984264685,-1.5006775026278023],[29.742399743914,-1.5006175298999735],[29.742220042369901,-1.5005273883971995],[29.742166050263499,-1.5006351331638124],[29.741950658958217,-1.5005277284180349],[29.741618460025919,-1.5004872993541334],[29.741012967636291,-1.5000181628080254],[29.741103172562429,-1.4995024563978834],[29.741410316313456,-1.4992632524738287],[29.741598770183341,-1.4989878177557323],[29.742127884330674,-1.4986297690532095],[29.742188065101846,-1.498509673157755],[29.742307248136164,-1.4984488062273043],[29.742361845749663,-1.4982986238278608],[29.742306236148096,-1.4976354923283566],[29.742216441808658,-1.4976356054574982],[29.742216329403171,-1.4975452372392586],[29.742165596018662,-1.4975059303661602],[29.741587431763964,-1.4972749241934349],[29.741587544123409,-1.4973652924597227],[29.741138572141779,-1.4973658578183744],[29.74113845980068,-1.4972754895179512],[29.740636002774579,-1.4974750059330784],[29.740381031548139,-1.4973063929545756],[29.740511431731271,-1.4964106083986877],[29.741270634457543,-1.4960967723460812],[29.741491385968772,-1.4958082247780837],[29.74165753307426,-1.4952048129936897],[29.74159854925653,-1.4948065468383904],[29.7418295987584,-1.4942128938823991],[29.742332957170582,-1.4939813537974587],[29.742571464102298,-1.4942915297993],[29.742970960358896,-1.4946123139486336],[29.7435596485765,-1.4946517602680309],[29.74391860050687,-1.4944705722272074],[29.743958871819594,-1.4943118367630752],[29.744304749975871,-1.4938063129973775],[29.744725497495711,-1.4937108267620389],[29.745538189077454,-1.4939632364290611],[29.746067001105263,-1.4938400029476069],[29.746511438850025,-1.4931739941780293],[29.746790210905008,-1.4930210697037929],[29.747220092648071,-1.4929202547201359],[29.747899395827901,-1.4931990534301141],[29.747993398021112,-1.4938337390403977],[29.747869421288915,-1.4943752307044689],[29.747869533687435,-1.4944655984949404],[29.747959327470326,-1.494465485372654],[29.747959552295097,-1.4946462209396609],[29.748009150354065,-1.49468911483822],[29.748457702058751,-1.4954103558694369],[29.748499439645421,-1.4955492194658289],[29.748859532927881,-1.4958282306701995],[29.749015938094857,-1.4963655304681389],[29.748793328875561,-1.4966565283906821],[29.748590809272049,-1.4968142545129763],[29.748590921883618,-1.4969046222464499],[29.748501128049419,-1.4969047355793441],[29.748436037367661,-1.4969898249952072],[29.747590441258517,-1.4973015319479523],[29.747155120387788,-1.497629377870531],[29.747155345622829,-1.4978101135548798],[29.747065551643068,-1.4978102268971276],[29.747102745177987,-1.4982251099896673],[29.747156134159749,-1.4984426884474757],[29.747907020657721,-1.4993217574233775],[29.748712164630895,-1.4999020526405371],[29.74891286951603,-1.5003800136994372],[29.74899645898947,-1.5007481080958966],[29.749213852794842,-1.5012657824711673],[29.749518724353095,-1.5022802476426602],[29.749675332229586,-1.5024156885366431],[29.749765126199435,-1.5024155747380497],[29.749765239280858,-1.5025059423773506],[29.749855033247577,-1.502505828568204],[29.749855146339488,-1.5025961962005734],[29.750027516008259,-1.5026442729508418],[29.750474831458117,-1.5028278499863035],[29.750573950411138,-1.5029567558487038],[29.750636403256671,-1.5029884472242223],[29.750730912214351,-1.5031826088993596],[29.750664197012256,-1.5033181122526977],[29.750745939841945,-1.5033838206484182],[29.750625584722563,-1.5043623873040752],[29.750575761715204,-1.5044026370732195],[29.75063554162741,-1.5045232870329974],[29.75066623540868,-1.5049447284994513],[29.750756029406773,-1.5049446144682983],[29.750756369365135,-1.5052157171529046],[29.750666575355975,-1.5052158312046084],[29.750577007998213,-1.5053966804026537],[29.750692069261504,-1.5054417180994075],[29.750577121337535,-1.5054870479775548],[29.750577234683668,-1.505577415552372],[29.750487440646129,-1.5055775296240517],[29.750189324262394,-1.5061068226124072],[29.75017078855667,-1.5063426933391113],[29.750129284683531,-1.5063912943514548],[29.750219078781519,-1.506391180232985],[29.750219645847036,-1.5068430182390369],[29.750976766711521,-1.507478104937152],[29.751013419470283,-1.5079302717547924],[29.750897970291554,-1.5080654840306318],[29.750849793522661,-1.5081073648005123],[29.750819817051326,-1.5082577811261098],[29.750700863103926,-1.5084993832898193],[29.750671000249408,-1.5087401663030575],[29.750902004092151,-1.509321448842774],[29.75094117807441,-1.5093723961443328],[29.751645289248501,-1.5097436150084578],[29.752029933218559,-1.5104002427661303],[29.752150077914809,-1.5106861834302565],[29.752250039849116,-1.5108567973580995],[29.752290137548123,-1.510997294009379],[29.752349918311694,-1.5111179434079771],[29.752380273198582,-1.5112682817499117],[29.75255927490824,-1.5113591275701133],[29.752649997182157,-1.5115390402295705],[29.75265011106983,-1.5116294076411598],[29.752739905191497,-1.5116292930210815],[29.752740019089689,-1.5117196604257312],[29.752829813208237,-1.5117195457950703],[29.752829927116952,-1.5118099131927807],[29.753163904395286,-1.5120272426770582],[29.754121396421198,-1.5118600888243343],[29.754331739418621,-1.5121883952019781],[29.754267316096918,-1.5123502822117165],[29.754388174458779,-1.5124548139158687],[29.754447930601003,-1.5131633581840389],[29.75458746859363,-1.5132341769224871],[29.754627860987032,-1.5134342303351995],[29.754627975099435,-1.5135245975941558],[29.755119047279059,-1.5139492762541749],[29.754731749183151,-1.5142310782671538],[29.754052168216766,-1.5145373129273558],[29.75350409546601,-1.5150137339194083],[29.753462591970109,-1.5150623351595296],[29.753462706157038,-1.5151527025061318],[29.753372911945299,-1.5151528174234523],[29.753243923340424,-1.5157277189494665],[29.753324015573956,-1.5159260010973963],[29.753862451597868,-1.5165488380673844],[29.753951282782957,-1.517260158307858],[29.753824968961467,-1.5175921603852527],[29.753855324815301,-1.5177424992488624],[29.753915106449199,-1.5178631471936848],[29.754004900731495,-1.5178630320481963],[29.75400501515211,-1.517953399351037],[29.754094809431312,-1.5179532841949472],[29.754094923862461,-1.5180436514908449],[29.754241899658957,-1.5182572913030772],[29.754724486076871,-1.5185917111139515],[29.754904675322909,-1.5193077561252382],[29.754994469589708,-1.5193076408288058],[29.754994584160393,-1.5193980080548384],[29.755084378424094,-1.5193978927477985],[29.75508449300532,-1.5194882599668849],[29.755582090510487,-1.5198005421563308],[29.755623716949092,-1.5198490367156152],[29.755713511183647,-1.519848921348036],[29.755803305411384,-1.5198488059767092],[29.755977221384544,-1.519922061065125],[29.756358429641757,-1.520007548403413],[29.756521773662488,-1.5199382499800362],[29.756701361995717,-1.5199380191524472],[29.756791156152094,-1.5199379037330307],[29.757570175044172,-1.5195450764911027],[29.757568984570607,-1.5198161795506053],[29.757509394441453,-1.5198466132094435],[29.757509509157337,-1.5199369802427749],[29.757599303252267,-1.5199368647896274],[29.757599762199003,-1.5202983328946387],[29.757509968089177,-1.5202984483752553],[29.757579761266488,-1.5204650833444715],[29.757510541907614,-1.5207502835389524],[29.757360497203294,-1.5210208389254329],[29.756882786267237,-1.5213836616007048],[29.756792519479653,-1.5215638064427253],[29.75661374802382,-1.5216551094898974],[29.756661881464861,-1.5225107901114991],[29.757108685795966,-1.5227544005545335],[29.758243657666796,-1.5231701029528864],[29.758501724671333,-1.523460021339393],[29.758616786961717,-1.5235050565478085],[29.758501839701424,-1.5235503882937855],[29.758441661573503,-1.523670485143789],[29.758322481408786,-1.5237313537568529],[29.758262303274901,-1.5238514506290604],[29.758143123086281,-1.5239123192595061],[29.757394301300362,-1.5243127446682243],[29.757295284845132,-1.5253858173920143],[29.757933647626288,-1.5259378634628586],[29.758553230818187,-1.5260320528630782],[29.758870641418593,-1.526148893317123],[29.759044174628588,-1.5263510678886707],[29.759410882567845,-1.5265490446359997],[29.759708855659539,-1.5269292881207086],[29.759494068289083,-1.52707342283389],[29.75941254348988,-1.5271799896180154],[29.758799397598281,-1.5274234900695571],[29.758327088461328,-1.527346032405769],[29.758296999525879,-1.5274060813824564],[29.757998230593984,-1.5274671824644703],[29.757758463917412,-1.5275875116399251],[29.757609079378454,-1.5276180617295243],[29.757609194685344,-1.5277084287486986],[29.757519400269324,-1.5277085447924357],[29.75751986155019,-1.5280700128957518],[29.757430067112367,-1.5280701289631902],[29.757400093492155,-1.5282205450255717],[29.757340618677596,-1.5283413461446573],[29.757418929571582,-1.5283956070921141],[29.757520784439699,-1.5287929490983037],[29.757733445524305,-1.5289403150284393],[29.757880423911136,-1.5291539525604567],[29.757970218359763,-1.5291538363917596],[29.757970333797726,-1.5292442033820168],[29.75814992268198,-1.5292439710195735],[29.758150038134271,-1.5293343379960085],[29.758419421420673,-1.5293339894034552],[29.758419536891033,-1.5294243563591974],[29.759012083692586,-1.5294614044152073],[29.760253279386507,-1.5297098291771982],[29.760088671911461,-1.5298363040283909],[29.759946618855743,-1.5298742144368733],[29.759901869716362,-1.5299900117306795],[29.759856824527443,-1.5298743307435085],[29.75911981378804,-1.5303386043189993],[29.75830227560887,-1.5304897746270891],[29.758241218575126,-1.5304186254304155],[29.758091833981215,-1.5304491768020809],[29.757971950646382,-1.530509341236681],[29.757927201374336,-1.5306251387058625],[29.75788215614153,-1.5305094575084017],[29.757702682640502,-1.5306000570501062],[29.757702798176499,-1.5306904240596055],[29.757613003643659,-1.5306905403337399],[29.757343851066626,-1.5308716232071766],[29.756961928923641,-1.5316700457746293],[29.756706235233107,-1.5329639342370187],[29.756538705131071,-1.5332222140596543],[29.756538820816267,-1.5333125811559436],[29.756449026085814,-1.5333126975800864],[29.756388848445674,-1.5334327950677122],[29.756269667972752,-1.5334936646505388],[29.756269783667157,-1.5335840317671658],[29.756269899368384,-1.5336743988837076],[29.756180104602421,-1.5336745153239637],[29.756129035968559,-1.5338375562183664],[29.755205936905007,-1.5345700319024791],[29.754793501658892,-1.5356619905554629],[29.75492633383114,-1.5362967944182195],[29.755016128801707,-1.536296677831942],[29.755016360515128,-1.5364774122519693],[29.755232695748912,-1.5365305890280641],[29.755555246129973,-1.5365670797411244],[29.755854112655861,-1.5367174214721293],[29.755914773580152,-1.5368377146081376],[29.7559931968947,-1.5370133065980598],[29.755851567828866,-1.537433358779124],[29.755646316340734,-1.5375610018824815],[29.75564643231592,-1.5376513690433087],[29.755761496116193,-1.5376964031289151],[29.755646548297925,-1.5377417362040504],[29.755616575587275,-1.5378921527010785],[29.755557101290535,-1.5380129544289445],[29.755608145924992,-1.5380539798909936],[29.755527614636286,-1.5387125343221935],[29.755788241669631,-1.5393179833565218],[29.755828343341634,-1.5394584785245271],[29.755918370642291,-1.5396390959369521],[29.75604377420958,-1.5397292999839671],[29.755918602936038,-1.5398198302134061],[29.755918835257084,-1.5400005644895174],[29.756008630307115,-1.5400004475801696],[29.756009211248028,-1.5404522832346317],[29.756068995810377,-1.5405729306333025],[29.756099354967873,-1.5407232676582265],[29.756355749481092,-1.5409009219047036],[29.756279410096987,-1.5410845021493529],[29.756408444254454,-1.5411844753839659],[29.756307664971324,-1.54135450800436],[29.755886317180522,-1.541682682798617],[29.755573896321263,-1.5420911001981208],[29.755472649433315,-1.5421699610894239],[29.75547276574898,-1.5422603282596075],[29.755382970563598,-1.5422604453177227],[29.755172054684962,-1.542568732831062],[29.75466516832368,-1.5424407592688347],[29.754395223074116,-1.5422617327059942],[29.754350474364426,-1.5423775308829684],[29.754305427806869,-1.5422618497184735],[29.753948844951296,-1.5422033748945654],[29.753779108638945,-1.5422288465041629],[29.753407242308604,-1.5420822849781066],[29.753317609131479,-1.5422084887663641],[29.753227651632372,-1.5420825188881693],[29.752829159924595,-1.542404520318694],[29.752390625744795,-1.5429570926477136],[29.752241180701397,-1.5430778467057134],[29.75224129694918,-1.5431682141219336],[29.752151501480487,-1.5431683311116811],[29.752111761014056,-1.5433089315794315],[29.751693451694816,-1.543836691135954],[29.751574383299626,-1.5443940430903986],[29.751524560769795,-1.5444342945190064],[29.751524677089535,-1.5445246619887654],[29.751614472662673,-1.5445245449228668],[29.751614588993018,-1.5446149123856872],[29.751704384563119,-1.5446147953091276],[29.751704500904061,-1.5447051627650095],[29.751704617251818,-1.5447955302208054],[29.751794412822679,-1.5447954131267312],[29.751794529181037,-1.544885780575588],[29.751884324748868,-1.544885663470851],[29.75188444111782,-1.5449760309127694],[29.752685431362245,-1.5450423541823501],[29.752782629293208,-1.5451555943338233],[29.752872424797424,-1.5451554771666152],[29.75287254122847,-1.5452458445328758],[29.752932326388631,-1.5453664920932142],[29.752963035481827,-1.545787931509625],[29.753078100229917,-1.5458329650496609],[29.752963151964387,-1.5458782988684281],[29.753022937206442,-1.5459989463844037],[29.753053530019258,-1.546330018397196],[29.753143325552255,-1.5463299011294254],[29.753143442083296,-1.5464202684739996],[29.753233237613266,-1.5464201511955598],[29.753233470703382,-1.5466008858707381],[29.753764922306683,-1.5469916886955077],[29.754131969162,-1.5470208829504317],[29.754620202595035,-1.5469807641585556],[29.754662574323234,-1.5475030457826102],[29.754497640935288,-1.5480569605432113],[29.754183935407106,-1.5482336487785446],[29.753595102196748,-1.548498130156587],[29.753555220224435,-1.5486982884195029],[29.75341586114876,-1.5487694670211563],[29.753385889453376,-1.5489198840353251],[29.753326415722455,-1.5490406864708597],[29.753441480740744,-1.5490857196599468],[29.753326532465632,-1.549131053799139],[29.753326649215627,-1.5492214211273323],[29.753236853574908,-1.5492215386221455],[29.753237437408174,-1.5496733752961032],[29.753294833284187,-1.5498103957786986],[29.753201413469988,-1.5501787176873978],[29.753058780495333,-1.5503965491263869],[29.753058897329389,-1.5504869164739432],[29.752969101615054,-1.5504870340532815],[29.752697006306249,-1.550970159854792],[29.752569350675937,-1.5512590458971178],[29.752431612517842,-1.5514817807943184],[29.752482348681561,-1.5515210847586041],[29.752612256422303,-1.5522948519509805],[29.752702052239933,-1.552294734249831],[29.752702169201957,-1.5523851016229984],[29.752791965016574,-1.5523849839111656],[29.75279208198922,-1.5524753512773914],[29.752881877800828,-1.552475233554875],[29.752881994784083,-1.5525656009141588],[29.752882111774166,-1.5526559682733561],[29.752971907586563,-1.5526558505332999],[29.752972024587269,-1.5527462178855549],[29.752972141594785,-1.5528365852377242],[29.753061937407978,-1.5528364674801267],[29.753062054426117,-1.5529268348253529],[29.753062171451077,-1.5530172021704931],[29.753151967265058,-1.5530170843953539],[29.753152084300641,-1.5531074517335515],[29.753278379999358,-1.5532249011546211],[29.753550552479915,-1.5540031799536378],[29.753286881082694,-1.5545062502758042],[29.753200743412101,-1.5546905404383464],[29.753154192107047,-1.5547340638063298],[29.753154309272173,-1.5548244311428854],[29.753064513382036,-1.5548245490551518],[29.753064630550174,-1.5549149163984772],[29.753114557095401,-1.5549550381638277],[29.753245628972156,-1.5559990885050008],[29.753371034903758,-1.5560892911695245],[29.753245863507765,-1.5561798231618902],[29.753245980785803,-1.556270190490205],[29.753335776723283,-1.5562700724605616],[29.753335894011951,-1.5563604397819328],[29.753387117058846,-1.5564031515050369],[29.753684839919856,-1.5571033066390356],[29.753382885937661,-1.5576355064089837],[29.75329755054517,-1.5582172047833067],[29.753248562627597,-1.5582582716912268],[29.753405744054138,-1.5585743292749936],[29.753338945910588,-1.5587099901071975],[29.753388872665887,-1.5587501116954368],[29.753738939353013,-1.559392216618718],[29.754058724479318,-1.5597934514149259],[29.754238316522482,-1.5597932147477276],[29.754238434115297,-1.5598835819971393],[29.754328230130469,-1.5598834636509114],[29.754328347733924,-1.5599738308933768],[29.754507939751452,-1.5599735941756625],[29.754508057369378,-1.5600639614043219],[29.754597853371727,-1.5600638430328349],[29.754777562992189,-1.5601539734863119],[29.755348284484768,-1.5601062281497788],[29.756120874118306,-1.5597735026512265],[29.756434109371618,-1.5597409558683561],[29.756483097077854,-1.5596998880316928],[29.756439037998053,-1.5596538579439623],[29.756401804080856,-1.557928899454236],[29.75664582614634,-1.5573212135617405],[29.757158456681545,-1.5563165490598154],[29.757649273823066,-1.5552950252786704],[29.758318892039799,-1.5544579837526815],[29.758853732563832,-1.5535057124026228],[29.759931551835543,-1.5523313335517352],[29.760133888626658,-1.5520198582688725],[29.760703053616663,-1.5514681052121937],[29.761724588997694,-1.5497311393085278],[29.761721954868975,-1.5496095803907664],[29.761929666153208,-1.5489962980187557],[29.762441990547281,-1.5479922361778553],[29.763063466939425,-1.5465135523558819],[29.763661652222574,-1.5445350035935794],[29.763865806439565,-1.5434751670618803],[29.763960622185852,-1.5432893674821366],[29.764047916308972,-1.5427452441176335],[29.764274244714883,-1.5417264815692515],[29.764764689702464,-1.5401254837696996],[29.76489598204299,-1.5395803989407155],[29.765032674593364,-1.53904073459069],[29.76511868968948,-1.5375025811837748],[29.765272960683578,-1.5365851791165965],[29.765192207807399,-1.5328402229500209],[29.765019263300577,-1.5300040923934679],[29.764924907809341,-1.527656878944714],[29.764631724849401,-1.5249181856495877],[29.764377913148181,-1.5232905125451366],[29.763502006748908,-1.5177958759634722],[29.763296584031604,-1.5169935173489297],[29.763178973749465,-1.5163912937743924],[29.762555132420715,-1.5139544647308247],[29.762098230987512,-1.5119993562644858],[29.761785761218427,-1.5112269174959123],[29.761531820140405,-1.5100697034379451],[29.76105153189339,-1.5084074101913665],[29.760326408851022,-1.506284215611065],[29.760231122270067,-1.5056997757335449],[29.759509047847157,-1.5041662657376427],[29.759118175503783,-1.5031726045682405],[29.758366074056859,-1.5019727548331241],[29.757993849312921,-1.5010933843347933],[29.757346770123366,-1.4998332012768609],[29.757089701994406,-1.4993016385556619],[29.756730080844601,-1.4987691572978101],[29.756090427807948,-1.497571993920485],[29.754655449303186,-1.4949613959923245],[29.754034008807054,-1.4939330157713675],[29.753120599191437,-1.4922440678596949],[29.752475610597362,-1.4910863293830718],[29.75203903696794,-1.4904398875342606],[29.751544869225242,-1.4896834045581351],[29.751229438435061,-1.4892661262736941],[29.750966969265562,-1.4888643352650088],[29.750530226459116,-1.4878324723887888],[29.750233957124166,-1.4870792910829769],[29.748912645088019,-1.4853313399745998],[29.748621742818212,-1.4848395671762902],[29.747110601960681,-1.4822855408176763],[29.746994828525541,-1.4819280188072039],[29.745835471920742,-1.482676028790284],[29.744537973733063,-1.4834891100708156],[29.742844017926821,-1.4848252161418731],[29.742210319057076,-1.4851356016705537],[29.740802937720765,-1.4862131212037701],[29.740573714371081,-1.4866901366671983],[29.739259908443834,-1.4873336249311684],[29.738130241924559,-1.4881662033451191],[29.737264923258959,-1.4887387080818402],[29.736269977693322,-1.489419262169992],[29.735278180399249,-1.4897915638092238],[29.734225511164755,-1.4899223438722851],[29.732906151235628,-1.4902643990229496],[29.731934747603134,-1.4906623556037357],[29.73030963527459,-1.4910978974348483],[29.726990241175319,-1.4920979143891941],[29.725910946859212,-1.4924224275143219],[29.72503003214117,-1.4927833064175662],[29.724907368060762,-1.4924044852222522],[29.724400952499845,-1.4887864786542746],[29.724055825397919,-1.4856258205965118],[29.723056134210214,-1.4843421038528628],[29.722848204941869,-1.4842409052569998],[29.72245170828533,-1.4838266027193947],[29.721947351062084,-1.4833401320951543],[29.721771130450222,-1.4831559921108004],[29.721582240302972,-1.4829737872016919],[29.721325291191391,-1.482979390156318],[29.721186286989951,-1.4829316959839334],[29.720879357674772,-1.4830299149756008],[29.720121120839426,-1.484002761522893],[29.719614867690737,-1.4843326562637447],[29.718990275035345,-1.4847887224677336],[29.718459855381859,-1.485041460552915],[29.718364063755015,-1.486717012330746],[29.718545226861917,-1.4874093348985116],[29.718497949597676,-1.4874535303285934],[29.718711587515465,-1.4877937754939259],[29.718735816646337,-1.4880301067278889],[29.718246507614822,-1.4882158336215479],[29.718139541504208,-1.48808656619451],[29.7177806887603,-1.4882672774184809],[29.717600877474741,-1.488177604737922],[29.717452440208966,-1.4883945364847899],[29.717242026253775,-1.4884491606773453],[29.717079076788085,-1.4892214041587237],[29.717130812100248,-1.4900771219166802],[29.716711179289138,-1.4908045328987278],[29.715638655428982,-1.4915627613200699],[29.715497905690999,-1.4920234916927129],[29.715450538487225,-1.4920661981568799],[29.715584160608262,-1.4924070501109616],[29.715631018193367,-1.4927889368120486],[29.71569068549702,-1.492819221631398],[29.715810943401092,-1.4930598241289896],[29.715861677188038,-1.4930991326736116],[29.716030042045379,-1.4933816613045832],[29.716260701232599,-1.4936918569054685],[29.716475153040424,-1.4937469571601112],[29.716800144487092,-1.4942334071373169],[29.717203958440763,-1.4942818180251081],[29.717698105314312,-1.4942322887031205],[29.717787901360023,-1.4942321768394335],[29.717788012518348,-1.4943225469100261],[29.718135685049255,-1.4944274212052775],[29.718722923191077,-1.4949353078732832],[29.718760833309375,-1.4954027977314168],[29.718256339724856,-1.4961117058161975],[29.71805951412188,-1.4960392422162263],[29.717953667458662,-1.4962504736014037],[29.717640884864615,-1.4961901467459364],[29.717610644846193,-1.4961301723124165],[29.717070111664313,-1.4965028736945829],[29.716897686183945,-1.4969283658497436],[29.716735182706053,-1.4978984604527286],[29.716036923866529,-1.4989729867507091],[29.715908302453261,-1.4992048867772927],[29.715938654119171,-1.499355231446388],[29.716088452571192,-1.4996565134216941],[29.716268156837945,-1.4997466591921975],[29.716357953215081,-1.4997465469748157],[29.716358064725142,-1.4998369171486103],[29.716447861099226,-1.4998368049207649],[29.71644797261969,-1.4999271750877115],[29.716923694676758,-1.5002770526060598],[29.717545037597059,-1.5002260270283378],[29.71766405339525,-1.5003289562516009],[29.717779999221033,-1.5010883863572944],[29.718341561784861,-1.5015546695093036],[29.719062796197981,-1.5020080550385688],[29.719372752145897,-1.5024053303084921],[29.719691123289401,-1.5029594518976757],[29.720445105311136,-1.5035855250439665],[29.72067309198108,-1.5037174294602664],[29.720762888190258,-1.5037173167635212],[29.720763000176856,-1.5038076866018992],[29.721004177847568,-1.5036866559389306],[29.721002409027626,-1.5039577680415757],[29.720942816590529,-1.5039882008331327],[29.720641896102698,-1.5044609913008631],[29.720492794903016,-1.5051123124232175],[29.720597233773354,-1.5058175461218826],[29.720188873908022,-1.5068416163385823],[29.720048665227772,-1.5070619042034372],[29.720048777434119,-1.5071522740929248],[29.719958981030864,-1.5071523870174162],[29.719729088123831,-1.5074631577901683],[29.719639277723019,-1.5079993576923985],[29.71951145792087,-1.5083277606681831],[29.719636859646247,-1.508417972930719],[29.719511682484551,-1.5085085005260146],[29.71942211056869,-1.5086893534008379],[29.719537174493503,-1.5087343936154691],[29.719422222870403,-1.5087797233362334],[29.719128449015617,-1.5091637466765084],[29.71865478065336,-1.5092348017761847],[29.718255204426676,-1.5090523023806832],[29.718165564469562,-1.5091785059645177],[29.718075611188876,-1.5090525283615936],[29.717755892784712,-1.5089703819630496],[29.717626291252905,-1.5087819830368365],[29.71741363016832,-1.508634604540487],[29.717266655794752,-1.5084209544063598],[29.716787578197621,-1.5081265628392069],[29.716117834971598,-1.5084842968224237],[29.715937804623994,-1.5094398207122941],[29.715764431272728,-1.5097705547416738],[29.714490643234097,-1.5109613132025834],[29.714057512972818,-1.5110891955408365],[29.713677923799562,-1.510955837955295],[29.71328979642767,-1.5107441894036202],[29.713228377578968,-1.5105045506385688],[29.713029484430024,-1.5104644032339891],[29.712958762085183,-1.5103241484616687],[29.712650196470431,-1.5102735374546656],[29.711338613512041,-1.5101964417983316],[29.710821421560066,-1.5105833512008702],[29.710610591469298,-1.5115950914136231],[29.710766586603476,-1.5119929476577367],[29.710805873321164,-1.5121342678943415],[29.710946405577324,-1.5121734629867598],[29.711024754643311,-1.5122753622593337],[29.711469719544606,-1.5126201134566861],[29.711525261799618,-1.5129466991994165],[29.711640326700355,-1.5129917397224901],[29.711525374091583,-1.5130370697259992],[29.711525486390265,-1.5131274402524983],[29.711640551307209,-1.5131724807581899],[29.711525598695651,-1.5132178107789136],[29.711525711007759,-1.5133081813052447],[29.711435913713949,-1.5133082943358276],[29.711436026029062,-1.513398664868828],[29.711551090977078,-1.5134437053566028],[29.711436138350891,-1.5134890354017441],[29.71143625067943,-1.5135794059345766],[29.711436363014688,-1.513669776467325],[29.711346565699326,-1.5136698895211864],[29.711180563502847,-1.5138642879557693],[29.710786918827612,-1.5142064535526867],[29.71058829442179,-1.5147528881117232],[29.710948222285957,-1.5156099967532231],[29.710989961508055,-1.5157488647058492],[29.711079758935643,-1.5157487515116288],[29.711080208902139,-1.5161102337420935],[29.710990411459687,-1.516110346963321],[29.71099052396438,-1.516200717527479],[29.710900726511504,-1.5162008307517187],[29.710830092249758,-1.5164320646108644],[29.710051332372799,-1.5171340824367092],[29.710140484458073,-1.5178132066327146],[29.71094474691558,-1.5183990608108013],[29.710978995212894,-1.5189653563152086],[29.709916438444267,-1.5201945037630469],[29.709626881009644,-1.5208315247589883],[29.709380363198239,-1.5211731425729631],[29.709380476011795,-1.5212635132539003],[29.709290678229685,-1.5212636267886974],[29.709144234440874,-1.5214776483232819],[29.708931938280919,-1.5216255637482152],[29.708857902124585,-1.5217122561446617],[29.70853157946048,-1.5219457325569221],[29.70803474935245,-1.5222592944797537],[29.707994477367979,-1.5224180349456475],[29.7077091609024,-1.5228350266134782],[29.707496864422975,-1.5229829423099375],[29.707350420424209,-1.5231969642466434],[29.70713812386542,-1.5233448800148834],[29.70690661650633,-1.5236637107882933],[29.706520809710376,-1.5243447804367685],[29.706471007898646,-1.5244326958631305],[29.70642120698399,-1.5245206103906914],[29.706458290693586,-1.5248451364684212],[29.706601481015916,-1.5250626083921837],[29.706750872549122,-1.5250320608894452],[29.706870762425282,-1.5249718963985768],[29.706910653799177,-1.5247717328471539],[29.707229611054952,-1.5246088437672949],[29.707498219297968,-1.5240673921551897],[29.707556005858915,-1.523933460640208],[29.707694916392121,-1.5236115045926322],[29.707851572608977,-1.5235157444919718],[29.708130003799191,-1.5232164270510729],[29.708289003530339,-1.5230235216425589],[29.708404630466852,-1.5229482491062498],[29.708623236386554,-1.5228093200673714],[29.708900070445367,-1.5226333846183904],[29.709374783684598,-1.5225289559819633],[29.709397646135852,-1.5224418990467683],[29.710057342394808,-1.5224556771550346],[29.710103240696963,-1.5225224157124493],[29.710628617126726,-1.5225327532928408],[29.710822466529539,-1.5223804916775254],[29.711179558731256,-1.5220854709035219],[29.711377947952538,-1.5218906218751986],[29.711599935442031,-1.5218146030289752],[29.711973042249507,-1.5218431712989458],[29.712072180084657,-1.5221758988540555],[29.71218549469631,-1.5224420847761468],[29.712289163713855,-1.522808374631869],[29.71269545333524,-1.5233262218176755],[29.712884345656391,-1.5235163687327986],[29.713203136912245,-1.5235639422401914],[29.713423929866337,-1.5235948671903317],[29.713724288276516,-1.5235334816551456],[29.71409819503058,-1.5233441873495426],[29.714429764504104,-1.5230829884233428],[29.714448013791884,-1.5230110502887844],[29.714553934438211,-1.5227563523879974],[29.714626697375678,-1.5222828736091583],[29.714320361158272,-1.5220705958438949],[29.714044848302652,-1.5219978172080151],[29.713928687350339,-1.5214101261038888],[29.714139748856308,-1.5212574905409315],[29.714139522840767,-1.5210767498948543],[29.71422932025278,-1.5210766361709835],[29.714186672783434,-1.5206328356541148],[29.713817123293516,-1.5201325262709706],[29.713292786568417,-1.5198178309401165],[29.7131499443644,-1.5196320742396325],[29.71304715143761,-1.5195660376409517],[29.71293596591482,-1.519169758761328],[29.71305946995939,-1.5190899653754417],[29.713059357154243,-1.5189995949693242],[29.713121114999943,-1.5186308864073532],[29.713417982742456,-1.5185472889563576],[29.713417869962736,-1.5184569185767638],[29.713597464671562,-1.5184566915772517],[29.713597351891121,-1.5183663212110898],[29.71377694656562,-1.5183660942101149],[29.714135910248604,-1.5181848995117604],[29.714135797466007,-1.5180945291858987],[29.714315392037534,-1.5180943021805477],[29.714531259206918,-1.5177694593576416],[29.714584332706821,-1.5177324804753545],[29.714583881676795,-1.51737099930492],[29.714244544697682,-1.5171522643179614],[29.713640270009556,-1.5170247303602147],[29.713225608793955,-1.5167034634580789],[29.713139006753671,-1.5161186575640406],[29.713340540931544,-1.5156213210563407],[29.713870720471281,-1.5155417876405195],[29.714335787160731,-1.5159021205316066],[29.714727597417923,-1.5164116468046354],[29.715330518817584,-1.5168787888224287],[29.715391718164277,-1.517098867285124],[29.71548151531837,-1.5170987538062961],[29.715481628082799,-1.5171891240316664],[29.715571425233883,-1.5171890105423342],[29.715571538008763,-1.5172793807608573],[29.715661335156842,-1.5172792672610202],[29.715661447942161,-1.5173696374726959],[29.716109982424982,-1.517007589171633],[29.716289012756469,-1.516555511339742],[29.716288900005662,-1.5164651411746575],[29.716378697066482,-1.5164650277057703],[29.716549548088661,-1.5154313670105186],[29.71687717721522,-1.5155096964634525],[29.717185855522185,-1.5156506754368828],[29.717275652482289,-1.5156505619915017],[29.717275765213412,-1.5157409320829165],[29.717604824496124,-1.515770875275646],[29.717904569306135,-1.5159208779010396],[29.718023906162017,-1.5159814449834401],[29.718084388710437,-1.5161013909665324],[29.718132671730057,-1.5161431505332328],[29.718632289213549,-1.5170127064148438],[29.719219033785727,-1.5174999100722733],[29.720061726092798,-1.5175448108250398],[29.720151522915497,-1.5175446971177891],[29.720151409930796,-1.5174543272447245],[29.720420800347341,-1.5174539861208418],[29.720827600972807,-1.5169598005973135],[29.721007387474359,-1.5165529524550874],[29.721572490434347,-1.5161957548534495],[29.721717539335039,-1.5158675059151077],[29.721813783227311,-1.5156933732625284],[29.721948395816,-1.5152413534926965],[29.722237127008057,-1.5154208015974548],[29.722304271501862,-1.5156442030846609],[29.722394068078053,-1.5156440894262273],[29.722394181020885,-1.5157344591315449],[29.722483977594045,-1.5157343454625933],[29.722484090547329,-1.5158247151610462],[29.722573887117466,-1.5158246014815762],[29.722574000081206,-1.5159149711731652],[29.722663796648312,-1.5159148574831762],[29.722663909622511,-1.5160052271679005],[29.722843615732298,-1.5160953694342245],[29.722933412286604,-1.516095255719458],[29.722933525285434,-1.5161856253836712],[29.723113231394255,-1.5162757675799239],[29.723203027935767,-1.5162756538403774],[29.723203140959228,-1.5163660234840775],[29.723489064640969,-1.5164394843374802],[29.723562553169572,-1.5165463076942554],[29.723831942706138,-1.5165459663472589],[29.723832055775851,-1.5166363359432269],[29.724011061431526,-1.5167271855075883],[29.724101784545912,-1.5169071032685633],[29.724191581039239,-1.5169069894403937],[29.7241916941508,-1.5169973590088892],[29.724309391236226,-1.5170789311210708],[29.724586967426347,-1.5175067317549837],[29.724641581818901,-1.5177197460515355],[29.724756646162465,-1.5177647849199039],[29.724641695009772,-1.5178101155853478],[29.724731717909226,-1.5179907407206772],[29.724846782270422,-1.5180357795546591],[29.724731831124057,-1.518081110247451],[29.724731944345642,-1.5181714797741406],[29.724821740843804,-1.5181713658247828],[29.724821854075849,-1.5182617353446024],[29.724942879417416,-1.5185326907143784],[29.72476713745429,-1.5189288440831559],[29.724699243041449,-1.5194022459572796],[29.724643733599258,-1.519436767179559],[29.724643846918333,-1.51952713671177],[29.725003713266297,-1.5200688975283194],[29.725093509822383,-1.5200687834252118],[29.725093623207311,-1.5201591529229015],[29.725628048899392,-1.520515330621995],[29.72613027309383,-1.5206465945821854],[29.726507854544938,-1.5203513217370555],[29.726709733232582,-1.5199763595526827],[29.726709619794111,-1.5198859901770208],[29.726889212628123,-1.5198857618517734],[29.726889099188952,-1.5197953924896095],[29.727068691988503,-1.5197951641629524],[29.727630634397507,-1.5196659560256571],[29.727877086219191,-1.5199748750822857],[29.727966882555496,-1.5199747608660164],[29.727966996052864,-1.5200651301465018],[29.728056792386141,-1.5200650159196905],[29.728056905893993,-1.5201553851932974],[29.728236498547719,-1.5201551567148408],[29.728236612069775,-1.5202455259747747],[29.728685593604489,-1.5202449546790531],[29.728727910309736,-1.5201971794775895],[29.729277851129904,-1.5200255035485628],[29.730031742160964,-1.51961065635977],[29.730390813193125,-1.5195198301237625],[29.730390699635759,-1.5194294610262855],[29.730570291878436,-1.5194292324616931],[29.730570178320384,-1.5193388633777325],[29.730659974427859,-1.5193387490966166],[29.730925337802375,-1.5191538566589267],[29.731108387063294,-1.5188863324177935],[29.731254826283028,-1.5186723136146989],[29.731467117037649,-1.5185243992506514],[29.731894084475911,-1.5186968396221343],[29.732185939196274,-1.5188849609355304],[29.732275735163384,-1.5188848466209954],[29.732275848758345,-1.5189752155761325],[29.73243466513004,-1.5189983005843288],[29.732882173398885,-1.5194492787075231],[29.732905215901273,-1.519606997572009],[29.733244520089212,-1.5202548464668222],[29.733919546666876,-1.5206377784413874],[29.733585658874528,-1.5211925855019468],[29.733535835016099,-1.5212328361529299],[29.733535948839162,-1.5213232050105869],[29.733505972203247,-1.5214736236017676],[29.73344649436487,-1.5215944261542507],[29.73353629034899,-1.5215943115830506],[29.733536631919737,-1.5218654181547533],[29.733626427908266,-1.5218653035593777],[29.733626541782446,-1.5219556724096357],[29.734048490414366,-1.5222679179998904],[29.735104576177008,-1.5223857298124679],[29.734996085852302,-1.5225988949748408],[29.734647923919724,-1.5228906999413045],[29.734525868798617,-1.5230389515607925],[29.734460826160348,-1.523440609790442],[29.734501046350719,-1.5237121287698956],[29.734436984985116,-1.5237620165828851],[29.734616919169287,-1.5240328933477862],[29.735148120726617,-1.5244922775973717],[29.735605930441636,-1.5250256859763405],[29.736216294274023,-1.5255535269833385],[29.736145620036368,-1.5257479456493861],[29.736252694265275,-1.5258022819297188],[29.736145962866583,-1.5260190516168606],[29.736146077156871,-1.5261094202725158],[29.736056281182456,-1.526109535293233],[29.736025491497102,-1.5261709975084596],[29.735667235604012,-1.5263507824935356],[29.735368460428305,-1.5264118813034042],[29.735248574187167,-1.526472045204631],[29.735248688473931,-1.526562413927993],[29.735158892413068,-1.5265625289451354],[29.734920280154778,-1.5270450375567937],[29.734890418608078,-1.5272858239757863],[29.734980214719187,-1.5272857089154479],[29.73498067210582,-1.5276471838870731],[29.735028955424433,-1.5276889420121924],[29.735488281620615,-1.5282240914050842],[29.735924306948192,-1.5282587877896736],[29.736765795561926,-1.5281896561145245],[29.737088591047833,-1.528468809365338],[29.736939475021593,-1.5290253115968917],[29.736597941029821,-1.5292176507992741],[29.736074514185344,-1.5293769759670794],[29.735196544867343,-1.5299300342804887],[29.734633567860882,-1.5300543743391513],[29.734122677069141,-1.5299002822267198],[29.733684414836585,-1.5295884136541644],[29.733498051619293,-1.5295050125682674],[29.73345642432664,-1.5294565170165886],[29.733408246783604,-1.5294983988680133],[29.732638004758531,-1.5296196614553321],[29.732518444194653,-1.5306810666885822],[29.732220866337201,-1.5313947272347026],[29.732254229043537,-1.5318060779613685],[29.732562124948942,-1.5323494739958197],[29.732651921445996,-1.5323493586523045],[29.73265203606416,-1.5324397275675983],[29.732999962073407,-1.5326704653740342],[29.733640141145422,-1.5327095649854048],[29.733879325681507,-1.5326788999032501],[29.73399921213343,-1.5326187344854232],[29.734134749393217,-1.532574280382319],[29.734883661630768,-1.5322470434146509],[29.735120587829396,-1.5324755510221189],[29.735015612349976,-1.5329177127371143],[29.734498396145948,-1.5336877273637375],[29.735306306119892,-1.5344669018409058],[29.73565400580409,-1.5348301805560991],[29.736211403470474,-1.5349207576188175],[29.736730527257606,-1.5354631398739835],[29.737281639671846,-1.5357313287153942],[29.737325697637829,-1.5357773608444873],[29.7375052901929,-1.5357771292350102],[29.737684997806934,-1.5358672661409816],[29.737987819992433,-1.5359539791633225],[29.738032472254865,-1.5363114362144628],[29.737636325590575,-1.5368112036004213],[29.737467044213265,-1.5370925220283607],[29.737417220752196,-1.5371327732984428],[29.737327654766968,-1.5373136263166365],[29.737377580678281,-1.5373537497325573],[29.737582228639269,-1.5381248843817541],[29.738027022440765,-1.5387599900052615],[29.738720718827409,-1.5393168483270303],[29.73912203780452,-1.5393665660837008],[29.739584753880106,-1.5390828926196436],[29.739787884264981,-1.538132182603231],[29.740022349402569,-1.5379427255662395],[29.740650922434934,-1.5379419129249505],[29.740689968029518,-1.5378908648120664],[29.74112144189553,-1.5375548123344791],[29.741195527836535,-1.5370458312377591],[29.74087875004173,-1.5360214770371705],[29.741154890379836,-1.5355053300052492],[29.741276266704205,-1.5354107889049704],[29.741276151501552,-1.5353204206468447],[29.741275921116603,-1.5351396841303377],[29.741365717072703,-1.5351395682086462],[29.741472240646353,-1.5345035318064935],[29.741633838103017,-1.5341451698743753],[29.741633722980364,-1.5340548016423652],[29.741723518864184,-1.5340546857874664],[29.741723403744569,-1.5339643175621991],[29.741813199617841,-1.533964201710345],[29.74181296939145,-1.5337834652732112],[29.741902765250416,-1.5337833494312314],[29.741902535043675,-1.5336026130074134],[29.741992330888333,-1.5336024971753082],[29.741991985617872,-1.5333313925594281],[29.742081781444465,-1.5333312767440275],[29.742320388845691,-1.5328487699003435],[29.742350248340856,-1.5326079838475761],[29.742260452564683,-1.5326080996196845],[29.742260222504441,-1.5324273632482825],[29.742170426728986,-1.5324274790029531],[29.742170311712805,-1.5323371108102952],[29.741954751477504,-1.5321877386547904],[29.741900464405205,-1.5319759851777173],[29.741810668621358,-1.5319761008831301],[29.741810208793257,-1.5316146280010265],[29.741989800324127,-1.5316143966410511],[29.741989685376574,-1.5315240284339693],[29.742169276872776,-1.5315237970725442],[29.742632035810743,-1.5314817678818384],[29.742977093343775,-1.5312516513628174],[29.742976978382103,-1.5311612832305246],[29.743066774043889,-1.5311611675374821],[29.743209411441576,-1.5309433372161829],[29.743245790584361,-1.5307090955798004],[29.74324556072683,-1.5305283593550971],[29.743425151950319,-1.5305281280382301],[29.743484628083252,-1.5304073257825392],[29.743514602782785,-1.530256908097932],[29.743454819617714,-1.530136259441091],[29.743424462495774,-1.5299859194440635]],[[29.717001268674437,-1.5128583882051836],[29.717161659606564,-1.5133170426805822],[29.716348385063238,-1.5142026093038201],[29.716060047956578,-1.5143400070383022],[29.716016917627112,-1.5143869672719816],[29.715166653635528,-1.5139314335600658],[29.715140464055526,-1.513287026254315],[29.716435542093805,-1.5127163100700518],[29.717001268674437,-1.5128583882051836]],[[29.73172744330903,-1.5112945364907846],[29.73172755631342,-1.5113849054938118],[29.731637760613868,-1.5113850192212188],[29.73163787362131,-1.5114753882309648],[29.731368486470963,-1.511475729411232],[29.731368373474627,-1.5113853603810781],[29.731188669032488,-1.5112952187585069],[29.731143915868127,-1.511411017572706],[29.731098873296055,-1.51129533245675],[29.730927717951278,-1.5112573473864144],[29.730798271561593,-1.5109130337557755],[29.730918717049086,-1.5108437145195657],[29.730979817150644,-1.5107217960022492],[29.731576926206642,-1.5104213941455027],[29.73181610928933,-1.5103907327996018],[29.731815996355657,-1.5103003638024555],[29.731995587632085,-1.5103001364922914],[29.732138229862532,-1.5100823073449214],[29.732443549373041,-1.5094862476022732],[29.732406466954195,-1.5091617293944692],[29.732263281025268,-1.5089442610421482],[29.7317241691246,-1.5086738353665197],[29.731679415811385,-1.5087896340440952],[29.731634373536053,-1.5086739488898364],[29.731421714019504,-1.5085265734799904],[29.731274740022979,-1.5083129267871744],[29.731274627267073,-1.5082225577472845],[29.731364422864196,-1.5082224442728605],[29.731401033173242,-1.5081689401232419],[29.731723266902488,-1.5079508833198365],[29.731723154155162,-1.5078605143136246],[29.731902745245439,-1.5078602873782909],[29.732021928733886,-1.5077994204623479],[29.73208211080474,-1.5076793224698362],[29.732081998062938,-1.5075889534905871],[29.732171793573308,-1.5075888400303181],[29.732207840241724,-1.5070834910725237],[29.732260687326939,-1.5068657748381931],[29.732143409949245,-1.5067679863284937],[29.732085154496634,-1.5061999435651738],[29.732323484043828,-1.5053787866809678],[29.733241937785941,-1.5054847862973804],[29.733336654847335,-1.5055992492399752],[29.734162819913831,-1.5056405005866946],[29.734619725340956,-1.5058280083907867],[29.734716983067766,-1.5064847148787597],[29.734505684766358,-1.5069533071878458],[29.734577711054271,-1.5073478744383844],[29.735134815904235,-1.5074043562599835],[29.735134703057142,-1.507313987511949],[29.735224498326275,-1.5073138739457126],[29.735722539178887,-1.5070691758136445],[29.736454036911017,-1.5068260241985403],[29.736563628672425,-1.5070368270963754],[29.7364815184871,-1.5072219149822017],[29.736417303412932,-1.5076051924467417],[29.73621281036446,-1.5077644678023532],[29.736212923289749,-1.5078548364682141],[29.73603333284942,-1.5078550637605119],[29.736033671643778,-1.5081261697984762],[29.736174201004044,-1.5081653628918525],[29.736342344339899,-1.508267145681238],[29.736961517208293,-1.5085212630118696],[29.737241197444479,-1.5089865643693012],[29.736944607293378,-1.5093391812836647],[29.736648136238536,-1.5092430331712938],[29.736483777688964,-1.5090292878846765],[29.736393982444461,-1.5090294016324328],[29.736393869423694,-1.5089390329812902],[29.735624321195374,-1.5085391611828076],[29.735315535360428,-1.5083078164496764],[29.73522574005743,-1.5083079300945603],[29.735225627138917,-1.5082175613541753],[29.735135831832839,-1.5082176749885283],[29.735135944747658,-1.5083080437357252],[29.7348665587777,-1.5083083846369032],[29.734866445873969,-1.5082180158692724],[29.734534433665949,-1.5083469297332499],[29.733816359581333,-1.5080701894053505],[29.733479656574833,-1.5082699520945639],[29.73316055905973,-1.5084009117972388],[29.733160671906777,-1.50849128069407],[29.733070876433885,-1.5084913942632998],[29.732899538832324,-1.508921084484413],[29.732712597346826,-1.5092147999468979],[29.732772377785281,-1.5093354519666751],[29.732802844489658,-1.5095761620308075],[29.732892640027224,-1.509576048391067],[29.732892752951162,-1.5096664173072276],[29.733012088073412,-1.5097269834264802],[29.733072569896379,-1.5098469278078102],[29.733287388184131,-1.5099849457828234],[29.733098305679643,-1.5102487573278693],[29.732893543608245,-1.5102989997180059],[29.732803748041082,-1.5102991134121944],[29.732803861015462,-1.5103894823344901],[29.732624269853424,-1.510389709725305],[29.732175517747166,-1.510571016076772],[29.732115335893806,-1.5106911142054742],[29.731996152405099,-1.5107519814091495],[29.731996265379998,-1.510842350392269],[29.731906469722965,-1.5108424640900355],[29.731906582700926,-1.510932833079875],[29.73181678703342,-1.5109329467807195],[29.731786922076402,-1.5111737343151062],[29.73172744330903,-1.5112945364907846]],[[29.738335200727988,-1.5057397162251742],[29.738426769717456,-1.5055624597882171],[29.738977498765241,-1.5056240452188396],[29.738904178526294,-1.5057729506671198],[29.738335200727988,-1.5057397162251742]],[[29.7438411936097,-1.5044111754762532],[29.744140931661629,-1.5045619692614247],[29.744072660377661,-1.5046635871298604],[29.743871547198076,-1.5045615160994523],[29.743841306597627,-1.5045015435651923],[29.743595746667939,-1.5046198121986154],[29.743403199363708,-1.5042673748908253],[29.743725067625643,-1.5041985956836224],[29.7438411936097,-1.5044111754762532]],[[29.721391013483657,-1.5033550486178717],[29.721352115217094,-1.5036504327087374],[29.721180087798086,-1.503722044515287],[29.721313415344447,-1.5033979813554417],[29.721391013483657,-1.5033550486178717],[29.721421612378972,-1.503244828485661],[29.721500458198779,-1.5033239794405246],[29.721391013483657,-1.5033550486178717]],[[29.732089946266058,-1.5009418163786556],[29.731861979951166,-1.5008246295790164],[29.731803614951595,-1.5003597736054783],[29.731803502768827,-1.5002694045990541],[29.731893298000994,-1.5002692917010167],[29.732263846266207,-1.5005250185970975],[29.732089946266058,-1.5009418163786556]],[[29.732566894896426,-1.4976895611584486],[29.732608632344558,-1.4978284268320436],[29.732766350409666,-1.4978689572361517],[29.733162350766541,-1.4981433725230009],[29.733216624396853,-1.4983855973053077],[29.73253653197596,-1.4988391248699704],[29.732250796656682,-1.4989133054758004],[29.732250908756345,-1.4990036744494544],[29.732161113602679,-1.4990037872670299],[29.732119272992101,-1.4990649212286851],[29.731756682342606,-1.4993032021575274],[29.731442864203178,-1.499095058709359],[29.731353068984955,-1.4990951715004674],[29.731352956915252,-1.4990048024588636],[29.73121220385578,-1.4987848697070139],[29.731039103865083,-1.4983092037325869],[29.730952810564048,-1.497508399535977],[29.730832050852442,-1.4969868540273858],[29.730451870219962,-1.496475594995631],[29.730223239325557,-1.4963171506535811],[29.730181590223392,-1.4957529795825788],[29.730181478451595,-1.4956626104494894],[29.730181366686566,-1.4955722413163168],[29.730271161849608,-1.4955721288384427],[29.730312443573471,-1.4953427895214084],[29.730408352946856,-1.4948975520105303],[29.730536379953747,-1.4939033299829094],[29.730858856511535,-1.4939872616977437],[29.731857353693282,-1.4946149223059932],[29.732463304644007,-1.4954727474122893],[29.732499814981143,-1.4959229250078383],[29.732116809329774,-1.4967941352694765],[29.732205962878357,-1.4971786099962325],[29.732566894896426,-1.4976895611584486]],[[29.760872189381814,-1.5234208706308556],[29.760836255625751,-1.5233666435230608],[29.760836025405645,-1.5231859099712244],[29.760925819381971,-1.5231857941318863],[29.76096161486155,-1.5231314753908662],[29.761159175578165,-1.5230590327282276],[29.761584929223396,-1.5226970159600648],[29.761836294787003,-1.5227863193380728],[29.761949482838379,-1.5232359444260248],[29.761506517676583,-1.5234922398629536],[29.760872189381814,-1.5234208706308556]]],[[[29.486768044087739,-1.4616769621912797],[29.486655748668518,-1.4614634326668892],[29.486767570045572,-1.4616779253400956],[29.486768044087739,-1.4616769621912797]]],[[[29.486768044087739,-1.4616769621912797],[29.486771221080009,-1.4616830028199603],[29.487138549001958,-1.4609251342093352],[29.486768044087739,-1.4616769621912797]]]]},"properties":{"OBJECTID_1":1,"gridcode":1,"Shape_Leng":64862.660045999997,"NAME":"Lake Burera","Shape_Length":60286.948235384079,"Shape_Area":19506253.044005658}},{"type":"Feature","id":2,"geometry":{"type":"Polygon","coordinates":[[[29.611719678832152,-1.3858784715189343],[29.611077224170575,-1.385842779556526],[29.610327693311952,-1.3858427799720827],[29.609828006240004,-1.385807088241394],[29.609407563348967,-1.3858070883276699],[29.609114169199959,-1.3858070884118567],[29.608543097477149,-1.3858070873094919],[29.608007719185895,-1.3858070880686002],[29.60736526447112,-1.385914163026196],[29.606651426407684,-1.3860212393077211],[29.6062078479072,-1.3860489637372218],[29.606080356635786,-1.3860569317910325],[29.605509285214669,-1.3861283155645867],[29.605111076735444,-1.3862527561242175],[29.60493821565877,-1.3863067743995858],[29.604331451498137,-1.3865209262661351],[29.603413631566955,-1.3868725290002299],[29.603135772784022,-1.3869789729980566],[29.603111978407309,-1.3869551782308314],[29.602888209564291,-1.3870670618775089],[29.602540907826839,-1.3872407125417459],[29.601946042677152,-1.387359686197686],[29.60127979311423,-1.3873834813421035],[29.601068555416877,-1.387412286668263],[29.600756312508253,-1.3874548645628653],[29.600161447460742,-1.3874786590711288],[29.599471403222818,-1.387550043882575],[29.599401214004487,-1.3875622504045493],[29.598924127239773,-1.3876452219767259],[29.598234083082307,-1.3877403997813418],[29.597734396850129,-1.3876690160743963],[29.597115736129705,-1.3875738376586093],[29.59651935757735,-1.3874968864402539],[29.596387808641929,-1.3874799112859879],[29.596378105190229,-1.3874786585078427],[29.59632570292391,-1.3874968853502236],[29.59583082830331,-1.3876690153763152],[29.595331141657066,-1.3877166053814387],[29.594664893199283,-1.3876690155506637],[29.594046232304652,-1.3875024544576384],[29.593379983514545,-1.3872169185657817],[29.59288270104042,-1.3871212872995098],[29.592761322898852,-1.3870979451471197],[29.592190252261993,-1.387288302494601],[29.591785743944769,-1.3877641947935493],[29.591697338234258,-1.3879274057281552],[29.591680846490227,-1.3879548369469883],[29.59165975567895,-1.3879967872933954],[29.591476413587092,-1.3883352649446836],[29.590952854065993,-1.388733171338979],[29.590881548026495,-1.3887873630251673],[29.590848053387656,-1.3888766832995283],[29.590667397099185,-1.3893584334642759],[29.590239094332503,-1.3899057095537368],[29.589977353547475,-1.390405395991406],[29.589786996624248,-1.3909764678467846],[29.589311104262521,-1.3915475382463838],[29.589031094129737,-1.3917030984241152],[29.588668650248181,-1.3919044566047341],[29.588145168900084,-1.3919044567282848],[29.587621687621066,-1.3923327595548833],[29.586979232334201,-1.3924755268075157],[29.586384367816841,-1.392427937473222],[29.585932269330407,-1.3920948146348138],[29.585556371777258,-1.3917753017298822],[29.58545637734758,-1.3916903057894676],[29.585037959289728,-1.391435616651334],[29.584909101632178,-1.3913571815243666],[29.584409414476745,-1.391047850238496],[29.583885933134226,-1.3907861109758655],[29.583267273288961,-1.3904053967952894],[29.582957944096176,-1.3900484783336982],[29.58255343539637,-1.3896201737054104],[29.582125132622735,-1.3891204882032699],[29.581673034701243,-1.3887873622243632],[29.581101963577659,-1.3884542392791741],[29.58069745518096,-1.3881449080520518],[29.579912234166944,-1.3879783456702275],[29.579364957007868,-1.3877166049180001],[29.578787275626734,-1.3876547112348705],[29.578698707877361,-1.3876452217994948],[29.578127638068295,-1.3876452213454593],[29.577767989319135,-1.3876452201455087],[29.577604155987242,-1.3876452218628872],[29.577056880160868,-1.3875262487527329],[29.576726638690396,-1.3874200992163244],[29.576390630758276,-1.3873120967706172],[29.576265224321709,-1.387286151315325],[29.575700587148326,-1.3871693287201614],[29.575224695244589,-1.3870027661263418],[29.574677419304852,-1.3869075883105635],[29.574196193125022,-1.3868184730025372],[29.574034964605254,-1.3867886151131461],[29.57341630477729,-1.3867886155262752],[29.572702467353068,-1.386859999752039],[29.572644696986021,-1.3868737547859862],[29.572202780100756,-1.3869789718584655],[29.571465146694514,-1.3870027665061273],[29.570894076272509,-1.3869551783836904],[29.570275416664352,-1.3869551780483116],[29.569632961908283,-1.3868837943406183],[29.56927060947708,-1.3867630101079469],[29.569061891153428,-1.3866934377510973],[29.568590442673528,-1.3866934377441149],[29.568490820824181,-1.3866934372304971],[29.568358552612573,-1.3866806373434242],[29.567753187744223,-1.3866220537231833],[29.567086938566263,-1.3867172315908911],[29.566468278277782,-1.3868124107358901],[29.566039975864502,-1.3869551783879639],[29.565883299436919,-1.3870661579252332],[29.565468905421668,-1.3873596865331206],[29.564897835048097,-1.3877404001735636],[29.564469532116522,-1.3881449083101125],[29.563956517024696,-1.3885413287242558],[29.563946050201178,-1.3885494166485939],[29.563942070273143,-1.388555386176064],[29.563612926027375,-1.3890491032637695],[29.563137033441119,-1.3895487906210127],[29.562589757050606,-1.3898105308242863],[29.561971097052176,-1.3900960661627262],[29.561304849154993,-1.3901436559476925],[29.560162707513292,-1.3902626281582429],[29.559448868677109,-1.3903816025009492],[29.558901592092891,-1.3904291903064183],[29.558758243194955,-1.3903634890850911],[29.558478798813653,-1.3902354101348933],[29.558330522635881,-1.3901674501522929],[29.557861075908601,-1.3898473729320662],[29.557807040881499,-1.3898105307100683],[29.557723293226147,-1.3898035523559962],[29.55723597010812,-1.3897629418128705],[29.55685525596629,-1.3901674503795316],[29.5564507482346,-1.3906195477265135],[29.55607003402644,-1.3911668233072259],[29.555760704255377,-1.3915951263125386],[29.555118250292335,-1.3920234296308669],[29.555049883755224,-1.3920837547763758],[29.554964245464433,-1.3921593173202449],[29.554713741852314,-1.3923803491114202],[29.554190259961679,-1.3927372684268051],[29.553714367275326,-1.3931179815321444],[29.553428832990601,-1.3936652577114907],[29.553197523372468,-1.3940700495751703],[29.553143297731339,-1.3941649451115241],[29.552924937319894,-1.3942993208139305],[29.552524637444041,-1.3945456583782276],[29.551882183685926,-1.394783604514612],[29.551406291248938,-1.3951405236146095],[29.550882809293341,-1.3956164164621041],[29.550454505949357,-1.3959495404926308],[29.549931024944289,-1.3962826655833152],[29.549420796448004,-1.396566125601693],[29.549288570221972,-1.3966395838281964],[29.548931651860936,-1.3969727089816402],[29.548626888264177,-1.3974298527288964],[29.548567498665633,-1.3975189363513107],[29.548550937648759,-1.3975437789338796],[29.548528171602566,-1.3976006951446611],[29.548312990900303,-1.3981386454340852],[29.548075045334592,-1.3987810994947243],[29.547965646869727,-1.3990363621039816],[29.547904520793043,-1.3991789895111093],[29.547860893993089,-1.3992807855010196],[29.547503974115607,-1.3997566782227675],[29.54705187686551,-1.4002563645921378],[29.546694957387714,-1.4005656950163541],[29.546100093463068,-1.4009939982735726],[29.545647994866972,-1.4014223010023081],[29.545053129086789,-1.4016840417839278],[29.544696211168514,-1.4020885504710252],[29.544196523765841,-1.4024216748101008],[29.543530275334764,-1.4025644425634021],[29.543030588004463,-1.4028499777770795],[29.54188844705708,-1.4035638157213459],[29.540984250882921,-1.404253859972252],[29.53993728852884,-1.4049914924237066],[29.538985504090757,-1.4057053301317728],[29.537272292202147,-1.4066571148317368],[29.535701848567982,-1.4074423375889209],[29.534440733773902,-1.408108586847528],[29.533964841751665,-1.4082989423213716],[29.533274797163806,-1.4083465326001157],[29.53270372749753,-1.4083227367299851],[29.531966094542135,-1.4082037634884526],[29.531561585439963,-1.4081085861372105],[29.530728774161918,-1.4081799698452342],[29.530086319861862,-1.4085130950359135],[29.529919757599345,-1.4089413977063585],[29.529776990798169,-1.4096552352368721],[29.529658017149988,-1.4102738951863039],[29.52922971470295,-1.4107973769902691],[29.528611054276048,-1.4108925559654093],[29.528039983162142,-1.4105356360165486],[29.527635474896794,-1.4101549224666479],[29.527209820365432,-1.4097529155287969],[29.527207171965195,-1.409750414783385],[29.527199507589938,-1.409745992530508],[29.526787656854165,-1.409508386136924],[29.526588512510735,-1.4093934949572284],[29.526533138648183,-1.4093934957888801],[29.525969852535809,-1.40939349457408],[29.525684316644213,-1.4098931818681295],[29.525541549738545,-1.410416663367027],[29.525684317214946,-1.4110591183329335],[29.525517755689599,-1.4116301879635611],[29.525422576092758,-1.4123440264904132],[29.525351192897901,-1.4128675088490539],[29.525160834809515,-1.4135099623419969],[29.52497047874591,-1.4140810332257134],[29.524637354005613,-1.4146521034045567],[29.524232846784521,-1.415104200545926],[29.523923515445265,-1.4155325047634417],[29.523590391501521,-1.4161035747165633],[29.52344762407683,-1.4168650034786399],[29.523233472243891,-1.4173646888652838],[29.523043115691319,-1.4177929925175174],[29.522828964094334,-1.4183640637782327],[29.522495839530748,-1.4189351338707485],[29.521996152364128,-1.4193872314745002],[29.521544054710184,-1.4199345070639404],[29.521091956796496,-1.4203152205288689],[29.520901600879228,-1.4208624965003378],[29.520854012031855,-1.4214097729703377],[29.520687448921549,-1.4220760233253755],[29.520663403196401,-1.4221722053757497],[29.520544681357357,-1.4226470935031541],[29.52033724179595,-1.4230619726714899],[29.520211557004863,-1.4233133421348634],[29.519854637189116,-1.42376544006412],[29.519465429383505,-1.4240768059758551],[29.519378746022163,-1.4241461540907152],[29.518879058277211,-1.4245268673735809],[29.518379371183649,-1.4249075808389848],[29.518499940978192,-1.4249994434814182],[29.518869387452806,-1.425280926674426],[29.518879057880671,-1.4252882941263119],[29.519378745639923,-1.4255262408471705],[29.52006878886387,-1.4259069541648919],[29.520520887298566,-1.426168694857846],[29.520844544104573,-1.4262765806739182],[29.521163341408805,-1.4263828466368318],[29.521567849035346,-1.4266207930998021],[29.521377492167169,-1.4270966850368485],[29.520949189520756,-1.4276439606603377],[29.520616065820594,-1.4282150309479014],[29.520306735609363,-1.4288336915997772],[29.520222933932455,-1.428917492944763],[29.519545307611814,-1.4295951192219492],[29.518974237505088,-1.4299520383419817],[29.51890851184805,-1.4299835874237237],[29.518379371805448,-1.4302375736757251],[29.517832096383007,-1.4304041364183606],[29.517237230372313,-1.4305944922081537],[29.516693650418706,-1.4309253668933102],[29.516689954574527,-1.4309276179427339],[29.516166473337247,-1.4312131525058269],[29.515619197416367,-1.4314273039659642],[29.514952947674082,-1.4316414549138869],[29.514381877582316,-1.4317842231747417],[29.514096136537628,-1.4318463412547429],[29.513834601120646,-1.4319031965951199],[29.513239735580491,-1.4320697596438803],[29.512621075956051,-1.4322125252470705],[29.512579305264811,-1.4322233552029633],[29.511978621992576,-1.4323790883746621],[29.51143134610275,-1.4324980625890618],[29.510836480602702,-1.432569446319806],[29.510289204403538,-1.4328073918667972],[29.509670544481288,-1.4330215427589488],[29.509004296188493,-1.433259489508909],[29.508433224950572,-1.4333546670114208],[29.508125598548286,-1.4334002414582552],[29.507790770654854,-1.4334498463390766],[29.507243494277311,-1.4335926134512122],[29.506553450135144,-1.4337353815680063],[29.50605376395422,-1.4339971213188882],[29.505865037439264,-1.4341686913693048],[29.505530282186882,-1.4344730144977322],[29.504887827115052,-1.4354485933506902],[29.504673676882678,-1.4359958688615651],[29.504578498865225,-1.4367097069983337],[29.504578498608598,-1.4373521619917],[29.504388140754227,-1.4379946157681787],[29.504362199452565,-1.4381346970373847],[29.504269168901473,-1.4386370712690659],[29.504126401028273,-1.439112963307607],[29.504253430907085,-1.4394305403281857],[29.504411936067257,-1.4398268011605091],[29.504459525614092,-1.4403978729944302],[29.503817070529514,-1.4404454623558323],[29.503566896561949,-1.4404216350389603],[29.503317383619674,-1.4403978720318114],[29.502579750916215,-1.4406358185268906],[29.50193729625429,-1.4408023806218111],[29.501679900512865,-1.4408815793090219],[29.501318637081717,-1.4409927375912395],[29.500699976792578,-1.4411355054748651],[29.500152700960705,-1.441135504802656],[29.499928686930467,-1.4411438021470699],[29.499510246264325,-1.441159298434719],[29.49927326587601,-1.4412446117174367],[29.498915380704528,-1.4413734511227743],[29.498249132056085,-1.4416113973084206],[29.497725651328167,-1.4417779597478504],[29.497178374809117,-1.4420396998171132],[29.496678688193789,-1.4423252358089504],[29.496155206676022,-1.4427059496002603],[29.495798287250945,-1.4431580474179693],[29.495649588633537,-1.4435095151529798],[29.495536545205155,-1.4437767071444443],[29.495480321578178,-1.4441702777551648],[29.49544136858653,-1.4444429557084588],[29.495441368111024,-1.4447123556760548],[29.49544136778373,-1.4450616155495948],[29.495511886440983,-1.4456081341703035],[29.495536546069872,-1.4457992485725841],[29.495376148475042,-1.4458935986626729],[29.495196484580088,-1.4459992846451486],[29.495132038675028,-1.446037194391095],[29.494489583759101,-1.4460609899952475],[29.493918512837222,-1.4462989348935209],[29.493537799714549,-1.4466796488249758],[29.493237766982968,-1.4471082679264815],[29.493204674111588,-1.4471555423153928],[29.493050463913299,-1.4476524417011043],[29.492990523588816,-1.4478455843855476],[29.492800166012927,-1.4483928610800221],[29.492633603817545,-1.4489639320087484],[29.492543469701314,-1.4491254223667467],[29.492403704767128,-1.4493758321272194],[29.492062533026864,-1.4499871001230948],[29.491562846444619,-1.4504154028757614],[29.490849008721199,-1.4513433925153723],[29.489921017693618,-1.4522951761446323],[29.489559075372245,-1.4527009908303647],[29.489135796476845,-1.4531755775845538],[29.488326779507677,-1.4541987459133106],[29.487279817179832,-1.4556026275909093],[29.485721670167234,-1.4574815697884349],[29.485661783279518,-1.457553785921575],[29.484828970662598,-1.4585769540899041],[29.48370305409858,-1.4601817123134337],[29.482758841318372,-1.4615274856713312],[29.481973617609611,-1.4625744495674802],[29.479356211866627,-1.4659770780037564],[29.476268229879143,-1.470259253301871],[29.473264792236296,-1.4744241645780574],[29.47214644473198,-1.4758756353636497],[29.47029046530017,-1.4784454531411624],[29.46843448512918,-1.4808962986328986],[29.466602301376305,-1.4834661161082969],[29.463651768934589,-1.48739222748968],[29.463009314457675,-1.4884391890737307],[29.461486459658207,-1.4903903479508958],[29.461040568898923,-1.4909970518050217],[29.460034987306958,-1.4923653005904178],[29.459372593844133,-1.4933137289192808],[29.458988024835055,-1.4938643603055191],[29.457584143177485,-1.495886903630625],[29.457024930457493,-1.4966075395254455],[29.455276066666027,-1.4988612282023026],[29.45499053068697,-1.4993371215338112],[29.453967362935337,-1.5007172091846201],[29.452301739756106,-1.5030252857760287],[29.450255402704968,-1.5058568445738238],[29.450133298879056,-1.5059345476720034],[29.450002113043862,-1.5060180297050714],[29.450036083192433,-1.5060823783160133],[29.450034601950868,-1.5060846279759383],[29.450090202676751,-1.5061492060946562],[29.450973200304137,-1.5071747731378613],[29.451570008128783,-1.5079906625715143],[29.455480669375831,-1.5133368832345584],[29.464495608442821,-1.5253758221889675],[29.473111151510121,-1.5361214762843389],[29.476838849149775,-1.5406860031078968],[29.48389484491495,-1.5492444901308198],[29.489619521666899,-1.5557679585166131],[29.492493086269086,-1.5583557163470816],[29.500453628395242,-1.5490988115328168],[29.510099936672432,-1.5385078891026138],[29.513910148064372,-1.5340460584368314],[29.515828808494085,-1.5320030931258191],[29.515506755967905,-1.530392397415308],[29.515236005094287,-1.5270094579395201],[29.5148550530193,-1.5206193032398334],[29.514798707710316,-1.51804164615321],[29.51452991244042,-1.5163234795857319],[29.514234252779566,-1.514444234273391],[29.514553186353719,-1.513369810493451],[29.514818139641356,-1.5117584246234439],[29.514923688965492,-1.5107379527419074],[29.514549106354746,-1.5098254463568288],[29.514013945993721,-1.5084835047940286],[29.514012836152421,-1.5075168587746921],[29.514223880094214,-1.5054222124472563],[29.514382058461809,-1.5037572493622793],[29.514674071341869,-1.50246804881302],[29.515046865193117,-1.501823186000357],[29.515953028402315,-1.5009628961554438],[29.516752959067635,-1.5005323488883509],[29.51739237516556,-1.4997260722552515],[29.517444816304653,-1.4989204738791755],[29.517763941071717,-1.4980071637903112],[29.518082269277336,-1.496395722782053],[29.518133977256198,-1.4949456965280723],[29.517598711817783,-1.4934963492266944],[29.516368166510585,-1.4906515350254363],[29.514041414775235,-1.4857672741819035],[29.504809677130211,-1.461718894398391],[29.507476473498613,-1.4605881377865877],[29.508223108841264,-1.4602113787972424],[29.508649518717807,-1.4597812772647614],[29.508648506546034,-1.4588683301273797],[29.508274207357008,-1.4581706134792407],[29.507686347178364,-1.4573657298741507],[29.507418711400916,-1.4566141891877971],[29.507098131343007,-1.4562386278732757],[29.506350486293176,-1.4557024366700257],[29.505200384237423,-1.4531259800509631],[29.504293605450943,-1.4534492101150205],[29.503116533485699,-1.4506042619843329],[29.503329209522295,-1.4499058856072879],[29.503808865715321,-1.4493683203120284],[29.503861577023059,-1.4487775286633842],[29.503807508855363,-1.4481331522488063],[29.502577914667697,-1.4460400988068751],[29.510044563341854,-1.4425411177172516],[29.516124856650489,-1.4400103374855817],[29.52473845875798,-1.4363490005383646],[29.523240621636297,-1.4329137228481295],[29.527187282332658,-1.4311371741830066],[29.525743759080978,-1.4285610721363653],[29.53139684414386,-1.4258160110306313],[29.529792144615286,-1.4222197552059714],[29.534458769683599,-1.4201202315580139],[29.545871872627654,-1.4149522774697636],[29.558324084744562,-1.4086554931752544],[29.559981750172554,-1.4119294037005532],[29.56670113637459,-1.4085925164128767],[29.566861266609809,-1.4086460397734346],[29.567823109058878,-1.4099337821137186],[29.568944610918898,-1.410845441161708],[29.569745027092583,-1.4108982519585942],[29.57187813075759,-1.4098218735841295],[29.575131488810118,-1.4085294516552056],[29.577611281411482,-1.4073452918427323],[29.578251385042055,-1.4071834798304774],[29.579107218586564,-1.4091157231599913],[29.579323070167035,-1.4113171784758194],[29.580817353958292,-1.4115840084954512],[29.581564999659658,-1.4121738702161679],[29.582472477992969,-1.4125487536455026],[29.582953340787537,-1.4131389131127674],[29.58311602470387,-1.415501519244301],[29.583170392250075,-1.4164143528277215],[29.583597484498441,-1.4166286726108472],[29.584291061405544,-1.4165741935912792],[29.584984280644623,-1.4161975182160054],[29.585304123110529,-1.4159286608541923],[29.585570489318034,-1.4155524642059358],[29.58621076817488,-1.4155517452545814],[29.587117351966324,-1.4151211307128133],[29.58759678671257,-1.4144224975509709],[29.588022983419144,-1.4138313246879775],[29.589036398341666,-1.4135079904915275],[29.590156881389142,-1.4135067323450674],[29.591010642463125,-1.4135594723533691],[29.591757332839265,-1.4132901365238326],[29.592504260078499,-1.4132355981711391],[29.593624919643595,-1.4133954360358829],[29.595652392973559,-1.4133394554751655],[29.59719959965264,-1.4132303162689706],[29.59733179580746,-1.4121561841117873],[29.597865415291491,-1.4122092832913851],[29.59855916191859,-1.4123158998453411],[29.599413096118884,-1.4125297348122055],[29.599946535692407,-1.4124217357162889],[29.600319608983124,-1.4120454222940837],[29.60122635987458,-1.4117759060263335],[29.60181345260661,-1.4119363420834929],[29.602507914453202,-1.4126873434231138],[29.603522452096758,-1.4133842848313201],[29.604590584885429,-1.4142959578967504],[29.605498891183203,-1.4154226060376036],[29.608328422994347,-1.4169229652234081],[29.609077026111724,-1.4183719791814273],[29.611157833366224,-1.4183159179235856],[29.611904449691725,-1.4179928780897531],[29.614198072030547,-1.4173995890909918],[29.616412017280368,-1.4171285800196713],[29.618278908131575,-1.4166431715073582],[29.620199513352041,-1.416479891150954],[29.621693576294579,-1.416585585946931],[29.623881434373661,-1.416851582233023],[29.626549602595624,-1.4172244221226318],[29.627617003062447,-1.417491692996713],[29.629804669633717,-1.4175965870951381],[29.631992515507772,-1.4178625721328506],[29.633806754497321,-1.4180215878737465],[29.636661220534773,-1.4180183157349449],[29.638101911488288,-1.4181240577975056],[29.63916905953911,-1.4181765297847768],[29.639916628467471,-1.4187126441588342],[29.640504135693305,-1.4192489416528269],[29.641411280647993,-1.4193552932237126],[29.642371169040324,-1.4189246118356376],[29.643437825963865,-1.4185475046702549],[29.64455759152791,-1.4179555478721848],[29.645624003005288,-1.4173636538774146],[29.646636936822738,-1.4166644277598659],[29.647383586838021,-1.4163950840567456],[29.64818359072618,-1.4161256790573196],[29.649516705454719,-1.4154797824515402],[29.651010001408373,-1.4149410959497561],[29.652396649469466,-1.4144562289000768],[29.654102745625803,-1.4133803313940498],[29.654955975140567,-1.4130034727815155],[29.656022314040918,-1.4123578861835935],[29.656661761777784,-1.4116590952023502],[29.657035052926439,-1.4114975762729736],[29.657273600393669,-1.4114318045059313],[29.657295271376665,-1.4113805804606878],[29.657358569423728,-1.4112539856816195],[29.657365623486502,-1.4112536178747115],[29.65749089581627,-1.4111275880510301],[29.657873589786167,-1.411027359613775],[29.657764248156724,-1.4104533193834798],[29.657700466687892,-1.4097790489906608],[29.657636684768857,-1.4091594498189479],[29.65768224281198,-1.4089863262418767],[29.657700466924677,-1.4086036333699323],[29.657800696232517,-1.4083211686290642],[29.657837142636151,-1.4081480456221322],[29.657855366510109,-1.4079202505679989],[29.657937373808956,-1.4077015679969076],[29.657928261294387,-1.4073553221766522],[29.658110495429309,-1.4069270686170681],[29.658128719977764,-1.4066537157378147],[29.658247171906929,-1.4061434580804846],[29.658219836572499,-1.40566964583803],[29.6582653954028,-1.4055056349368811],[29.65821983730617,-1.4052687292090886],[29.658338289599484,-1.4050044878908881],[29.658283618399519,-1.4044668933930027],[29.658529637014116,-1.4041570955100435],[29.658884994962946,-1.4037288413787348],[29.659003448073371,-1.4033825943633558],[29.65945903604208,-1.4030454598987137],[29.659477259670858,-1.4028358892409643],[29.659440812486579,-1.4023347431824635],[29.659650383076102,-1.4018791546179821],[29.659905511475067,-1.4014691261416969],[29.660051300213865,-1.4012504445577059],[29.66015153021976,-1.4007219623102956],[29.660279094048303,-1.3974235050366879],[29.659923736074166,-1.396785682282971],[29.659814394919547,-1.39660344725326],[29.659440812581163,-1.3963483179357001],[29.659459036378646,-1.395938288336833],[29.65939525433684,-1.3956376005697366],[29.659258578392976,-1.3954098069691347],[29.659076342210462,-1.3951546780299162],[29.659030784447243,-1.394872213310461],[29.659131013215127,-1.3944257362114281],[29.659240353798818,-1.3935601201959962],[29.659732388629962,-1.393095419448058],[29.659732232396859,-1.3930946306554159],[29.659783285174861,-1.3930729206797337],[29.659757568375191,-1.3930009150336431],[29.659746544522502,-1.392975718473928],[29.659591005176281,-1.3926202015873694],[29.659495827245951,-1.3921918988141542],[29.659210292552437,-1.3916922118932213],[29.658853372941135,-1.391240114763967],[29.658448864993556,-1.3908594013260602],[29.657806410125943,-1.3905262757490759],[29.657466067586213,-1.3902059540862688],[29.657401901444807,-1.3901455624725481],[29.657234520887936,-1.3900719150543466],[29.656807036867743,-1.3898838224270573],[29.656235965935917,-1.3895982864464818],[29.655641101373593,-1.3893841352041214],[29.65514141360681,-1.3890748050927499],[29.654546549314578,-1.3890034211938709],[29.653927889009715,-1.3889082429340285],[29.653333023189084,-1.3887892697767221],[29.652785747169801,-1.3886465010306772],[29.652214677019035,-1.3884799396352805],[29.651596016891006,-1.3882181997293068],[29.651024946322586,-1.3879564580964134],[29.650382492037632,-1.3877185129058283],[29.649954189080081,-1.3875281550822007],[29.649359323392563,-1.3871950309224148],[29.648859637069204,-1.3870046743996061],[29.648169593017474,-1.3867429321353359],[29.647717495221944,-1.3866477545613223],[29.646908478629424,-1.3866001664862038],[29.646551559838056,-1.3866477552116689],[29.64567115805708,-1.3866477547850951],[29.645100088577163,-1.3866477548422149],[29.644600400950281,-1.3868381123503268],[29.644005536153351,-1.3869332902111826],[29.643363081437261,-1.3872188258660314],[29.642744421763407,-1.3873377983980051],[29.64214955605815,-1.3873853878431337],[29.64155469179147,-1.3873140035904112],[29.640888442284353,-1.3872188247232971],[29.640436345386345,-1.3871712364619289],[29.639889068914893,-1.3870522630211282],[29.639056257632387,-1.3869808793950555],[29.638508981100472,-1.3869570841606222],[29.637866526776236,-1.3870046735050594],[29.637247867126472,-1.3871474419771341],[29.636704018320994,-1.3872347646791054],[29.636204332157263,-1.3872347649817924],[29.635561877729621,-1.3873061482180686],[29.634955115867619,-1.3873061481817546],[29.634312660750926,-1.3873061482392592],[29.633527439622174,-1.3874132244626773],[29.633064209526989,-1.3873801362134279],[29.63302775216113,-1.3873775317472075],[29.63295193882308,-1.3873870086371352],[29.632456681092421,-1.3874489166316062],[29.631940599590585,-1.3874489155016392],[29.63188560980532,-1.3874489165495809],[29.631840819776333,-1.3874550237656644],[29.631100388788333,-1.3875559913551876],[29.630565009921298,-1.3875559916957412],[29.629993939405722,-1.3876273752989285],[29.629280100953356,-1.3875559912901714],[29.629003146193689,-1.3875559912427429],[29.628780413524563,-1.3875559919468592],[29.62803088398881,-1.3874846076151528],[29.627424120778912,-1.3875916843444036],[29.626888741664263,-1.3874489162099992],[29.626389056234181,-1.3873775320053316],[29.625746601285616,-1.3873418407410503],[29.625032762123293,-1.3873418394131134],[29.624318924822056,-1.3872347643918115],[29.623890621247163,-1.3871990719119971],[29.623147955973483,-1.3870576128728218],[29.623141091200324,-1.3870563046418576],[29.622498636513818,-1.3870206131305745],[29.622420237524018,-1.3870206138490269],[29.621927566137252,-1.3870206122294524],[29.621427879456608,-1.3870206129084686],[29.620785424362278,-1.3869135371363515],[29.620178663026209,-1.3868421538391476],[29.619429131769714,-1.3867350775457985],[29.618929445298605,-1.3866993856618319],[29.618389927779809,-1.3865645060895928],[29.618358374426993,-1.3865566178252351],[29.618129228276104,-1.3865566172499164],[29.617787303162785,-1.3865566184142164],[29.617109158215257,-1.3865923098244683],[29.616478565665862,-1.3865572781666546],[29.616466704237951,-1.3865566180531121],[29.615859940426404,-1.386556618128524],[29.615431637219075,-1.3864852343215692],[29.614896258780416,-1.3864138501725596],[29.614182420076421,-1.3863067751783569],[29.613361506509367,-1.386128315391232],[29.612897511430205,-1.3859141632769174],[29.612362133705734,-1.3859498553715244],[29.611719678832152,-1.3858784715189343]]]},"properties":{"OBJECTID_1":2,"gridcode":2,"Shape_Leng":106429.46338,"NAME":"Volcanoes National Park","Shape_Length":77821.773900155982,"Shape_Area":96386644.746273935}}]}